[{"OBJECT_NAME":"OBJECT J","OBJECT_ID":"2025-155J","EPOCH":"2026-03-09T22:09:22.347648","MEAN_MOTION":15.2758258,"ECCENTRICITY":0.00088188,"INCLINATION":97.4475,"RA_OF_ASC_NODE":37.3123,"ARG_OF_PERICENTER":150.071,"MEAN_ANOMALY":210.1035,"EPHEMERIS_TYPE":0,"CLASSIFICATION_TYPE":"U","NORAD_CAT_ID":64884,"ELEMENT_SET_NO":999,"REV_AT_EPOCH":6559,"BSTAR":0.00051444498,"MEAN_MOTION_DOT":0.00013827,"MEAN_MOTION_DDOT":0},{"OBJECT_NAME":"STARLINK-36448","OBJECT_ID":"2026-003W","EPOCH":"2026-03-09T11:55:13.353312","MEAN_MOTION":15.27602724,"ECCENTRICITY":0.00011675,"INCLINATION":42.9951,"RA_OF_ASC_NODE":228.2137,"ARG_OF_PERICENTER":207.6464,"MEAN_ANOMALY":152.4326,"EPHEMERIS_TYPE":0,"CLASSIFICATION_TYPE":"U","NORAD_CAT_ID":67354,"ELEMENT_SET_NO":999,"REV_AT_EPOCH":879,"BSTAR":0.0012194421,"MEAN_MOTION_DOT":0.0003347,"MEAN_MOTION_DDOT":0}]
